GLOBALSTAR M068         
1 32266U 07048D   25325.04647433 -.00000052  00000+0  28923-3 0  9990
2 32266  51.9859 184.0932 0001992 100.0623  64.0218 12.62833710837370
GLOBALSTAR M079         
1 37188U 10054A   25325.10889954 -.00000086  00000+0  98837-4 0  9991
2 37188  52.0062  22.0911 0000202 156.8451 215.6160 12.62268619696277
GLOBALSTAR M074         
1 37189U 10054B   25325.56101291 -.00000080  00000+0  13063-3 0  9994
2 37189  52.0048  20.0125 0000385  92.2592  55.7575 12.62263608696937
GLOBALSTAR M076         
1 37190U 10054C   25325.49997860 -.00000089  00000+0  82292-4 0  9993
2 37190  52.0054  20.3853 0000222  75.9743  33.1094 12.62267454696640
GLOBALSTAR M077         
1 37191U 10054D   25324.48812203 -.00000081  00000+0  52680-4 0  9999
2 37191  52.0123 350.3823 0008904  96.4865  78.3499 11.95391638696725
GLOBALSTAR M075         
1 37192U 10054E   25325.59075037 -.00000103  00000+0  55650-5 0  9995
2 37192  51.9960  62.2753 0000675 114.3444 348.8219 12.62269744695725
GLOBALSTAR M073         
1 37193U 10054F   25325.44877689 -.00000088  00000+0  86405-4 0  9996
2 37193  52.0079 336.6517 0000180  23.4580 152.4912 12.62264421697691
GLOBALSTAR M083         
1 37739U 11033A   25325.38062294 -.00000091  00000+0  73221-4 0  9997
2 37739  51.9866 285.3715 0000378  40.5895 127.3857 12.62264569666707
GLOBALSTAR M088         
1 37740U 11033B   25325.03234478 -.00000060  00000+0  24705-3 0  9994
2 37740  52.0195 192.3565 0001085  82.2565  61.2648 12.62270368662208
GLOBALSTAR M091         
1 37741U 11033C   25325.05211836 -.00000091  00000+0  73586-4 0  9996
2 37741  51.9962 155.5687 0001041 101.8169  71.4068 12.62261953662990
GLOBALSTAR M085         
1 37742U 11033D   25325.57237632 -.00000121  00000+0 -96078-4 0  9992
2 37742  52.0111 105.0932 0000899 123.1415 315.8193 12.62266842663574
GLOBALSTAR M081         
1 37743U 11033E   25325.59900389 -.00000123  00000+0 -10731-3 0  9994
2 37743  51.9944 107.6840 0000750 110.3731 329.8951 12.62270584663720
GLOBALSTAR M089         
1 37744U 11033F   25325.48007134 -.00000114  00000+0 -58457-4 0  9997
2 37744  51.9942  62.2434 0000683  95.2650 345.3285 12.62272481664553
GLOBALSTAR M084         
1 38040U 11080A   25325.26866330 -.00000091  00000+0  69811-4 0  9995
2 38040  52.0020 290.2616 0000769  40.4235  97.8510 12.62265461642504
GLOBALSTAR M080         
1 38041U 11080B   25325.32529169 -.00000089  00000+0  83762-4 0  9997
2 38041  52.0071 291.7354 0000599 105.8165  59.6952 12.62271235642631
GLOBALSTAR M082         
1 38042U 11080C   25325.17720763 -.00000076  00000+0  15225-3 0  9998
2 38042  52.0075 247.6647 0000695  89.0243  53.1206 12.62265088643325
GLOBALSTAR M092         
1 38043U 11080D   25325.21612948 -.00000102  00000+0  94724-5 0  9992
2 38043  52.0106 337.9323 0000336  79.5381 358.9827 12.62267756641781
GLOBALSTAR M090         
1 38044U 11080E   25325.11730748 -.00000073  00000+0  17071-3 0  9996
2 38044  52.0123 241.7364 0000630  64.4883  44.3295 12.62264322643430
GLOBALSTAR M086         
1 38045U 11080F   25325.23337786 -.00000070  00000+0  18973-3 0  9994
2 38045  51.9895 241.6512 0000924 349.3060 175.5370 12.62279837643390
GLOBALSTAR M097         
1 39072U 13005A   25324.98745395 -.00000084  00000+0  11011-3 0  9995
2 39072  52.0015 157.1146 0000838  90.9409 269.1554 12.62267591590615
GLOBALSTAR M093         
1 39073U 13005B   25325.43651847 -.00000093  00000+0  58768-4 0  9996
2 39073  52.0075 149.0160 0000696 104.2387 255.8557 12.62270763590625
GLOBALSTAR M094         
1 39074U 13005C   25325.59464726 -.00000108  00000+0 -24675-4 0  9990
2 39074  51.9970  62.8554 0000523 136.7168 223.3740 12.62264935592252
GLOBALSTAR M096         
1 39075U 13005D   25325.44939620 -.00000124  00000+0 -11273-3 0  9992
2 39075  52.0054 111.9346 0000828 119.3880 240.7069 12.62268929591151
GLOBALSTAR M078         
1 39076U 13005E   25324.94839016 -.00000138  00000+0 -19115-3 0  9993
2 39076  51.9859 197.7621 0001271 124.6950 235.4036 12.62271708589714
GLOBALSTAR M095         
1 39077U 13005F   25324.97450911 -.00000059  00000+0  24863-3 0  9997
2 39077  52.0062 194.9904 0000789 105.0708 255.0246 12.62266655589573
GLOBALSTAR M087         
1 52888U 22064A   25325.06661618 -.00000096  00000+0  40883-4 0  9998
2 52888  52.0014 336.0649 0000141 124.2335 235.8545 12.62260576164855
